GLOBALSTAR M071         
1 31576U 07020F   22287.69321315 -.00000086  00000+0  97297-4 0  9994
2 31576  52.0058 279.5419 0000956  96.4693  75.0256 12.62269792372416
COSMO-SKYMED 1          
1 31598U 07023A   22288.09805611  .00000784  00000+0  10507-3 0  9994
2 31598  97.8896 110.0585 0001238  84.9634 275.1692 14.82158867830680
TERRASAR-X              
1 31698U 07026A   22288.20341780  .00000253  00000+0  15249-4 0  9993
2 31698  97.4457 294.1058 0001767  78.4407  51.8284 15.19152388850290
GENESIS 2               
1 31789U 07028A   22287.88448011  .00007919  00000+0  35404-3 0  9994
2 31789  64.4955  82.1258 0056914 296.1859  63.3419 15.20542073844050
COSMOS 2428             
1 31792U 07029A   22288.16363909 -.00000061  00000+0 -70760-5 0  9992
2 31792  70.9515 288.7735 0011200 232.8521 127.1578 14.12600988788832
ZHONGXING-6B            
1 31800U 07031A   22287.86299184 -.00000363  00000+0  00000+0 0  9992
2 31800   0.0058 224.6813 0005081 351.5348 233.3685  1.00274216 55975
DIRECTV 10              
1 31862U 07032A   22288.17974315 -.00000104  00000+0  00000+0 0  9995
2 31862   0.0358  18.5200 0000309 230.1685  96.9395  1.00271836 55954
SPACEWAY 3              
1 32018U 07036A   22288.18420325 -.00000152  00000+0  00000+0 0  9994
2 32018   0.5299  90.5966 0000381  84.5089 179.9662  1.00272042 55684
BSAT-3A                 
1 32019U 07036B   22287.75865596 -.00000351  00000+0  00000+0 0  9991
2 32019   0.0389 143.4545 0004415  82.0044 180.7964  1.00270859 37068
WORLDVIEW-1 (WV-1)      
1 32060U 07041A   22287.87571056  .00009998  00000+0  41036-3 0  9994
2 32060  97.3937  45.6471 0005980  53.5452 306.6336 15.24404218838584
OPTUS D2                
1 32252U 07044A   22287.85161747 -.00000184  00000+0  00000+0 0  9991
2 32252   0.0231 104.7063 0003784 102.6088 274.6515  1.00270997 55128
INTELSAT 11 (IS-11)     
1 32253U 07044B   22287.88450255 -.00000269  00000+0  00000+0 0  9994
2 32253   0.0906  89.7332 0001799 120.8033  88.3213  1.00270655 55075
WGS F1 (USA 195)        
1 32258U 07046A   22287.83035510  .00000040  00000+0  00000+0 0  9995
2 32258   0.0190 220.7659 0000574  28.4309  79.1028  1.00271497 38891
NAVSTAR 60 (USA 196)    
1 32260U 07047A   22287.04922681  .00000011  00000+0  00000+0 0  9994
2 32260  53.3457 135.6274 0144423  65.2596 296.3173  2.00568516109892
GLOBALSTAR M067         
1 32263U 07048A   22287.55151627 -.00000065  00000+0  23709-3 0  9993
2 32263  51.9757  13.4868 0001260  72.9052 300.4487 12.40614121688264
GLOBALSTAR M070         
1 32264U 07048B   22287.60043001 -.00000105  00000+0 -75275-5 0  9999
2 32264  51.9740 223.4227 0000629 107.5002  64.0216 12.62287708690332
GLOBALSTAR M066         
1 32265U 07048C   22287.86800027 -.00000099  00000+0  28239-4 0  9995
2 32265  51.9670  84.8446 0000264  96.8171  49.8662 12.62269978692639
COSMOS 2433 [GLONASS-M] 
1 32275U 07052A   22287.31435493 -.00000088  00000+0  00000+0 0  9991
2 32275  66.0747   0.7290 0004058 223.7016 143.2732  2.13104231116509
COSMOS 2432 [GLONASS-M] 
1 32276U 07052B   22287.84972322 -.00000088  00000+0  00000+0 0  9997
2 32276  66.0886   0.8142 0008434 318.5572  47.1130  2.13103361116511
YAOGAN 3                
1 32289U 07055A   22288.08415663  .00001856  00000+0  24266-3 0  9998
2 32289  97.9424 309.0220 0001786 104.3894 255.7552 14.81636360806753
SKYNET 5B               
1 32294U 07056B   22288.11331630  .00000142  00000+0  00000+0 0  9993
2 32294   1.8228  88.2930 0003926 113.3218 247.9353  1.00269008 54741
ASTRA 4A (SIRIUS 4)     
1 32299U 07057A   22287.99007991  .00000032  00000+0  00000+0 0  9992
2 32299   0.0595  74.9141 0002911 126.7138 183.1388  1.00274115 54511
COSMO-SKYMED 2          
1 32376U 07059A   22288.06429893  .00000502  00000+0  69665-4 0  9997
2 32376  97.8896 110.0245 0001352  83.7532 276.3847 14.82155196803428
RADARSAT-2              
1 32382U 07061A   22288.13352560  .00000113  00000+0  60887-4 0  9996
2 32382  98.5784 293.3401 0001143  98.6079 348.6023 14.29984452774407
NAVSTAR 61 (USA 199)    
1 32384U 07062A   22287.56050237 -.00000074  00000+0  00000+0 0  9994
2 32384  56.1122 327.5561 0020429 147.0060 349.9345  2.00568690108601
HORIZONS-2              
1 32388U 07063B   22287.85327054 -.00000254  00000+0  00000+0 0  9995
2 32388   0.0178 265.3393 0002500 326.6473  24.7805  1.00273035 54366
COSMOS 2434 [GLONASS-M] 
1 32393U 07065A   22287.21646772  .00000023  00000+0  00000+0 0  9997
2 32393  64.3690 237.3723 0000541  84.8451  97.0047  2.13103081115202
COSMOS 2436 [GLONASS-M] 
1 32395U 07065C   22287.74031648  .00000024  00000+0  00000+0 0  9998
2 32395  64.3774 237.4129 0015475 353.6326   5.8853  2.13102798115147
THURAYA-3               
1 32404U 08001A   22287.83778821 -.00000302  00000+0  00000+0 0  9991
2 32404   4.1535  25.0363 0002095 181.7903 216.6562  1.00272566 54047
EXPRESS-AM33            
1 32478U 08003A   22287.83591214 -.00000083  00000+0  00000+0 0  9999
2 32478   1.3542  91.3318 0003417 138.3295  84.3486  1.00276616 54159
THOR 5                  
1 32487U 08006A   22287.82118451 -.00000010  00000+0  00000+0 0  9999
2 32487   0.0272 252.4343 0002457 319.2413 106.5594  1.00272554 53858
AMC-14                  
1 32708U 08011A   22287.96838931  .00000076  00000+0  00000+0 0  9999
2 32708  22.2425  36.7137 0032986   2.6286 350.2615  1.00274123 54649
NAVSTAR 62 (USA 201)    
1 32711U 08012A   22287.46416198 -.00000001  00000+0  00000+0 0  9995
2 32711  54.4652 203.4536 0166068 232.1521 126.3714  2.00568401106847
DIRECTV 11              
1 32729U 08013A   22287.60294501 -.00000127  00000+0  00000+0 0  9992
2 32729   0.0355  43.4649 0000148 171.3038 286.2440  1.00271556 53487
ICO G1                  
1 32763U 08016A   22287.48693259 -.00000172  00000+0  00000+0 0  9992
2 32763   4.1380  28.1462 0002404 164.5041 272.8330  1.00271531 53095
VINASAT-1               
1 32767U 08018A   22287.91938271 -.00000329  00000+0  00000+0 0  9996
2 32767   0.0059 252.1061 0002083 336.1577 258.1195  1.00274014 53146
STAR ONE C2             
1 32768U 08018B   22287.84771309 -.00000277  00000+0  00000+0 0  9998
2 32768   0.0558  25.8851 0002803 182.4211  55.2365  1.00270009 53224
CARTOSAT-2A             
1 32783U 08021A   22288.12734570  .00000860  00000+0  12430-3 0  9991
2 32783  97.9522 347.0685 0013520 138.2760 221.9526 14.78679692780708
CUTE-1.7+APD II (CO-65) 
1 32785U 08021C   22287.85131839  .00004024  00000+0  42186-3 0  9998
2 32785  97.6729 255.0326 0012163 190.2627 169.8345 14.90037886784269
AAUSAT-II               
1 32788U 08021F   22287.67882472  .00009005  00000+0  75609-3 0  9997
2 32788  97.5450 268.9106 0012301  83.9764 276.2860 14.98492888786289
DELFI-C3 (DO-64)        
1 32789U 08021G   22288.03012527  .00024582  00000+0  12536-2 0  9991
2 32789  97.3319 310.1682 0007685 264.9560  95.0797 15.16709928790137
CANX-2                  
1 32790U 08021H   22287.87464917  .00003210  00000+0  34211-3 0  9998
2 32790  97.6838 253.7715 0012650 196.9174 163.1624 14.89517855784213
SEEDS II (CO-66)        
1 32791U 08021J   22287.87919556  .00006245  00000+0  59986-3 0  9990
2 32791  97.6266 260.4323 0013742 144.6232 215.5903 14.93324926785096
AMOS-3                  
1 32794U 08022A   22287.83591214 -.00000036  00000+0  00000+0 0  9999
2 32794   0.0203 251.2144 0002850 285.1283 143.8305  1.00271570 52997
GALAXY 18 (G-18)        
1 32951U 08024A   22287.65336403  .00000024  00000+0  00000+0 0  9999
2 32951   0.0163 183.1701 0003263  29.7840 282.4402  1.00271702 32408
YUBILEINY (RS-30)       
1 32953U 08025A   22288.05617068  .00000024  00000+0  10000-3 0  9991
2 32953  82.4974 109.5632 0019542   1.0975 359.0149 12.43113993653198
COSMOS 2437             
1 32954U 08025B   22287.79448207  .00000044  00000+0  24606-3 0  9998
2 32954  82.4957 111.3073 0020962  16.9196 343.2575 12.42718536652985
COSMOS 2438             
1 32955U 08025C   22287.80510854  .00000050  00000+0  29136-3 0  9999
2 32955  82.4959 107.5985 0021340 355.1407   4.9457 12.43323825653302
COSMOS 2439             
1 32956U 08025D   22287.86139202  .00000049  00000+0  28213-3 0  9993
2 32956  82.5008 111.5227 0021088   4.3296 355.7962 12.43025262653156
FENGYUN 3A              
1 32958U 08026A   22288.14923675  .00000175  00000+0  10415-3 0  9998
2 32958  98.5185 245.9689 0009583  42.4699 317.7217 14.18749487745307
CHINASAT 9 (ZX 9)       
1 33051U 08028A   22287.83417551 -.00000249  00000+0  00000+0 0  9999
2 33051   0.0145 246.4512 0005804 336.7045 192.7237  1.00273788 52580
FGRST (GLAST)           
1 33053U 08029A   22287.79654928  .00002907  00000+0  14548-3 0  9996
2 33053  25.5826  73.2022 0012314 122.1595 238.0137 15.12530625791782
SKYNET 5C               
1 33055U 08030A   22287.84840828 -.00000140  00000+0  00000+0 0  9994
2 33055   0.3389  83.9776 0003911 125.7019 101.3258  1.00272225 52503
TURKSAT 3A              
1 33056U 08030B   22287.89216028  .00000145  00000+0  00000+0 0  9993
2 33056   0.0622 103.6704 0004494  83.0999 199.8129  1.00272560 38901
INTELSAT 25 (IS-25)     
1 33153U 08034A   22287.84840828 -.00000224  00000+0  00000+0 0  9990
2 33153   0.0175 231.4056 0003033 328.8493  97.0613  1.00271778 52249
BADR-6                  
1 33154U 08034B   22287.92147815  .00000144  00000+0  00000+0 0  9996
2 33154   0.0680  53.7464 0003552 169.1384 158.2912  1.00273696 52300
ECHOSTAR 11             
1 33207U 08035A   22288.17599410 -.00000057  00000+0  00000+0 0  9990
2 33207   0.0598  84.8584 0002800 114.4898 137.7220  1.00271969 52218
SUPERBIRD-C2            
1 33274U 08038A   22287.92182431 -.00000251  00000+0  00000+0 0  9996
2 33274   0.0116 229.6049 0002063 337.7172 291.9567  1.00272221 51936
AMC-21                  
1 33275U 08038B   22287.67896503  .00000035  00000+0  00000+0 0  9990
2 33275   0.0614  74.6930 0002590 136.5605 291.4909  1.00270153 52048
